{"type": "FeatureCollection", "features": [{"type": "Feature", "properties": {"chokepoint_id": "hormuz", "chokepoint_name": "Strait of Hormuz", "radius_km": 250.0}, "geometry": {"type": "Polygon", "coordinates": [[[59.009626254533245, 26.577875646641164], [58.995825057260646, 26.38147188749166], [58.96316359282413, 26.186885382596934], [58.91198048502757, 25.99558231420922], [58.842747319490904, 25.808997358488664], [58.75606282404298, 25.62852351831718], [58.65264644784536, 25.455502418692944], [58.53333142269807, 25.29121510690629], [58.39905738029262, 25.136873394716876], [58.25086258981411, 24.99361177554017], [58.089875871625225, 24.86247994609512], [57.91730823504635, 24.74443595893256], [57.734444281623716, 24.640340029617917], [57.54263340980297, 24.55094901994575], [57.34328085256768, 24.47691161629803], [57.137838576272806, 24.418764220018677], [56.927796066466804, 24.376927564386744], [56.71467102480025, 24.351704070377306], [56.5, 24.343275950877814], [56.285328975199754, 24.351704070377306], [56.072203933533196, 24.376927564386744], [55.8621614237272, 24.418764220018677], [55.65671914743232, 24.47691161629803], [55.45736659019704, 24.55094901994575], [55.265555718376284, 24.640340029617917], [55.08269176495366, 24.74443595893256], [54.91012412837478, 24.86247994609512], [54.749137410185895, 24.99361177554017], [54.600942619707375, 25.136873394716872], [54.46666857730194, 25.29121510690629], [54.347353552154644, 25.455502418692944], [54.24393717595703, 25.62852351831718], [54.15725268050911, 25.808997358488664], [54.08801951497243, 25.995582314209212], [54.036836407175876, 26.186885382596934], [54.004174942739354, 26.38147188749166], [53.99037374546676, 26.577875646641164], [53.99563335197519, 26.774609553437934], [54.02001188227156, 26.97017651846271], [54.06342161525918, 27.16308070851706], [54.12562658318822, 27.351839012485264], [54.20624130105612, 27.534992654428464], [54.30473074513449, 27.71111886503179], [54.42041168844105, 27.878842513236016], [54.552455489522025, 28.03684759099458], [54.69989241399732, 28.183888436076778], [54.8616175458516, 28.31880057119579], [55.03639831764958, 28.44051103299739], [55.22288365628526, 28.54804806210255], [55.419614704477205, 28.640550025898214], [55.62503703927236, 28.717273449465047], [55.83751426889205, 28.77760003714209], [56.05534285012764, 28.821042577822208], [56.27676793205986, 28.84724964103919], [56.5, 28.856008987957388], [56.723232067940145, 28.84724964103919], [56.94465714987237, 28.821042577822208], [57.16248573110796, 28.77760003714209], [57.37496296072764, 28.71727344946504], [57.580385295522795, 28.640550025898218], [57.777116343714745, 28.548048062102552], [57.963601682350436, 28.440511032997392], [58.1383824541484, 28.31880057119579], [58.30010758600269, 28.183888436076778], [58.44754451047798, 28.036847590994572], [58.579588311558965, 27.87884251323602], [58.695269254865515, 27.711118865031793], [58.79375869894388, 27.53499265442846], [58.874373416811785, 27.35183901248527], [58.93657838474083, 27.16308070851706], [58.979988117728446, 26.97017651846271], [59.00436664802481, 26.774609553437934], [59.009626254533245, 26.577875646641164]]]}}, {"type": "Feature", "properties": {"chokepoint_id": "hormuz", "chokepoint_name": "Strait of Hormuz", "radius_km": 500.0}, "geometry": {"type": "Polygon", "coordinates": [[[61.51732632644557, 26.511561754541653], [61.4813510087807, 26.119602174818198], [61.40814571583063, 25.731893278526513], [61.298607174643564, 25.35131346480634], [61.15386906744625, 24.980663368876705], [60.97528655022928, 24.622648197017895], [60.764420815862145, 24.279861143713713], [60.523023800230376, 23.954767873840133], [60.253023078644254, 23.649692055587227], [59.95650695984591, 23.366801935907887], [59.63570975623509, 23.108097958400762], [59.292997190743975, 22.875401432448747], [58.93085189197131, 22.670344271082964], [58.55185892826508, 22.49435982253423], [58.15869133674909, 22.348674826077808], [57.75409561304378, 22.234302526097483], [57.34087713985319, 22.152036979032975], [56.92188554596679, 22.102448585989745], [56.5, 22.085880879441927], [56.07811445403321, 22.102448585989745], [55.65912286014682, 22.152036979032975], [55.245904386956234, 22.234302526097483], [54.84130866325093, 22.348674826077808], [54.44814107173493, 22.49435982253423], [54.0691481080287, 22.670344271082964], [53.707002809256025, 22.875401432448747], [53.36429024376492, 23.108097958400762], [53.043493040154104, 23.366801935907887], [52.74697692135575, 23.649692055587224], [52.476976199769645, 23.954767873840137], [52.23557918413786, 24.279861143713713], [52.02471344977073, 24.622648197017895], [51.846130932553756, 24.980663368876705], [51.70139282535644, 25.351313464806335], [51.59185428416938, 25.73189327852651], [51.51864899121931, 26.119602174818198], [51.48267367355444, 26.511561754541653], [51.484572737512316, 26.904834617095933], [51.52472325053378, 27.29644422785423], [51.60322057938066, 27.683395883315566], [51.7198650742185, 28.062698743994726], [51.87415026632668, 28.431388873937863], [52.0652531173824, 28.786553186222818], [52.29202691341954, 29.12535414654827], [52.55299742927845, 29.44505503344396], [52.846362992276255, 29.74304549596611], [53.169999040394394, 30.016867090997884], [53.52146769561254, 30.264238426189806], [53.89803275480897, 30.483079485406822], [54.29668033997593, 30.671534675784162], [54.714145251424235, 30.827994113460292], [55.14694284140894, 30.951112662478764], [55.59140598431281, 31.03982626089119], [56.04372647930445, 31.09336511093935], [56.5, 31.11126337576648], [56.956273520695554, 31.09336511093935], [57.4085940156872, 31.039826260891196], [57.85305715859106, 30.951112662478767], [58.28585474857577, 30.827994113460292], [58.70331966002407, 30.67153467578417], [59.10196724519104, 30.483079485406826], [59.478532304387464, 30.264238426189806], [59.830000959605606, 30.016867090997888], [60.15363700772375, 29.743045495966104], [60.44700257072155, 29.44505503344396], [60.707973086580466, 29.125354146548275], [60.9347468826176, 28.78655318622281], [61.12584973367332, 28.43138887393786], [61.28013492578152, 28.062698743994734], [61.396779420619346, 27.683395883315566], [61.475276749466225, 27.29644422785423], [61.51542726248769, 26.904834617095933], [61.51732632644557, 26.511561754541653]]]}}, {"type": "Feature", "properties": {"chokepoint_id": "hormuz", "chokepoint_name": "Strait of Hormuz", "radius_km": 1000.0}, "geometry": {"type": "Polygon", "coordinates": [[[66.51936685666207, 26.24718906907554], [66.41502362008015, 25.468667364612656], [66.23901398804472, 24.70091360980531], [65.99383952406555, 23.949387248373135], [65.68232422693643, 23.21935329145135], [65.30758314314254, 22.515860215586358], [64.8729959885212, 21.843719166834617], [64.38218490676128, 21.207484101489904], [63.838995422195104, 20.611432613108388], [63.24747963774157, 20.059547312782236], [62.611880774013095, 19.555497739760536], [61.9366182321185, 19.10262287817141], [61.22627248130379, 18.70391443916363], [60.48556921465988, 18.36200113336154], [59.71936237334604, 18.07913420394717], [58.93261580375411, 17.85717451460325], [58.13038347427891, 17.697581488570943], [57.31778833035861, 17.601404175851556], [56.5, 17.569274686893966], [55.6822116696414, 17.601404175851556], [54.8696165257211, 17.697581488570943], [54.0673841962459, 17.85717451460325], [53.28063762665396, 18.07913420394717], [52.51443078534012, 18.36200113336154], [51.77372751869622, 18.70391443916363], [51.0633817678815, 19.10262287817141], [50.38811922598691, 19.555497739760536], [49.75252036225844, 20.059547312782236], [49.16100457780491, 20.611432613108388], [48.617815093238725, 21.207484101489907], [48.12700401147881, 21.843719166834617], [47.69241685685748, 22.515860215586358], [47.31767577306357, 23.219353291451352], [47.00616047593447, 23.94938724837313], [46.760986011955296, 24.700913609805305], [46.584976379919866, 25.468667364612656], [46.48063314333794, 26.247189069075535], [46.45009830801583, 27.030848739062133], [46.495110976803, 27.81387211862805], [46.616957635287285, 28.59036999158958], [46.81641637888639, 29.35437124969809], [47.09369596761538, 30.099860431998845], [47.44837128316662, 30.8208203908464], [47.87931754088869, 31.51128060712624], [48.38464643233232, 32.165371458885424], [48.96164817238267, 32.77738443700966], [49.60674410278748, 33.34183790007214], [50.31545494406733, 33.853547480719456], [51.08238986395226, 34.307699724822875], [51.90126112644759, 34.69992700428095], [52.76492812124475, 35.026381250758426], [53.66547303216307, 35.28380367555026], [54.594308356174196, 35.46958743521936], [55.54231409866161, 35.58183022782204], [56.5, 35.619374091791975], [57.457685901338394, 35.58183022782204], [58.405691643825804, 35.46958743521936], [59.33452696783693, 35.28380367555026], [60.23507187875524, 35.026381250758426], [61.098738873552406, 34.69992700428096], [61.91761013604775, 34.30769972482288], [62.68454505593267, 33.853547480719456], [63.393255897212526, 33.34183790007214], [64.03835182761733, 32.77738443700966], [64.61535356766768, 32.16537145888543], [65.12068245911132, 31.511280607126245], [65.55162871683336, 30.8208203908464], [65.90630403238463, 30.09986043199885], [66.18358362111361, 29.354371249698097], [66.38304236471272, 28.59036999158958], [66.50488902319701, 27.813872118628055], [66.54990169198418, 27.030848739062133], [66.51936685666207, 26.24718906907554]]]}}, {"type": "Feature", "properties": {"chokepoint_id": "bab_el_mandeb", "chokepoint_name": "Bab-el-Mandeb Strait", "radius_km": 250.0}, "geometry": {"type": "Polygon", "coordinates": [[[45.6336320236228, 12.573117079525716], [45.62314174954244, 12.376289720873304], [45.59528250583718, 12.181103171847669], [45.550302626999105, 11.989035576952386], [45.48857713438875, 11.801538545722396], [45.410604026130876, 11.620026486578995], [45.31699980128498, 11.44586627840448], [45.20849426135844, 11.280367341741513], [45.08592463099631, 11.124772168841702], [44.950229038929606, 10.980247369255993], [44.802439400182735, 10.847875285160377], [44.64367374123287, 10.728646228019139], [44.47512801129686, 10.623451385376024], [44.29806742512898, 10.533076443415947], [44.113817385511794, 10.458195967357977], [43.923754036823986, 10.399368577656125], [43.729294504445875, 10.357032955360499], [43.53188687807215, 10.33150470482855], [43.333, 10.322974096309734], [43.13411312192785, 10.33150470482855], [42.93670549555413, 10.357032955360499], [42.74224596317602, 10.399368577656125], [42.55218261448821, 10.458195967357977], [42.36793257487103, 10.533076443415947], [42.190871988703144, 10.623451385376024], [42.02232625876714, 10.728646228019139], [41.86356059981727, 10.847875285160377], [41.7157709610704, 10.980247369255993], [41.580075369003694, 11.1247721688417], [41.45750573864156, 11.280367341741513], [41.34900019871502, 11.44586627840448], [41.25539597386913, 11.620026486578995], [41.17742286561124, 11.801538545722394], [41.1156973730009, 11.989035576952386], [41.07071749416283, 12.181103171847669], [41.042858250457556, 12.376289720873304], [41.032367976377195, 12.573117079525716], [41.039365419675754, 12.770091507372356], [41.06383769754913, 12.965714811943004], [41.10563915545058, 13.15849562589882], [41.16449117493118, 13.34696074209487], [41.239982975294, 13.529666427149452], [41.331573450432174, 13.705209630080645], [41.438594076628, 13.872238998659192], [41.56025291905644, 14.029465612593897], [41.69563975411397, 14.175673339780268], [41.84373231147927, 14.309728719893789], [42.00340362416739, 14.430590278885218], [42.173430457093254, 14.537317178707436], [42.35250276531433, 14.629077109105419], [42.53923411282412, 14.705153332706232], [42.73217296229243, 14.764950801056171], [42.92981472634716, 14.8080012676771], [43.13061445275069, 14.83396733457044], [43.333, 14.842645380701168], [43.535385547249305, 14.83396733457044], [43.736185273652836, 14.808001267677096], [43.93382703770757, 14.76495080105617], [44.12676588717587, 14.705153332706232], [44.31349723468566, 14.629077109105422], [44.49256954290675, 14.53731717870744], [44.66259637583261, 14.430590278885218], [44.82226768852072, 14.309728719893792], [44.97036024588603, 14.17567333978027], [45.10574708094356, 14.029465612593897], [45.227405923372, 13.872238998659194], [45.33442654956782, 13.705209630080645], [45.426017024706006, 13.529666427149452], [45.50150882506882, 13.346960742094872], [45.560360844549415, 13.15849562589882], [45.602162302450864, 12.965714811943004], [45.62663458032424, 12.770091507372356], [45.6336320236228, 12.573117079525716]]]}}, {"type": "Feature", "properties": {"chokepoint_id": "bab_el_mandeb", "chokepoint_name": "Bab-el-Mandeb Strait", "radius_km": 500.0}, "geometry": {"type": "Polygon", "coordinates": [[[47.93391255296781, 12.543485812093646], [47.90951693455225, 12.150322834874231], [47.850613737676674, 11.760710871820509], [47.75778640804927, 11.377576576639695], [47.63185754402062, 11.003787635450818], [47.4738802572995, 10.642132956032054], [47.28512866741885, 10.29530353567211], [47.06708755364105, 9.965874066782577], [46.82144116276755, 9.656285345646841], [46.55006115461871, 9.368827558048064], [46.25499365935849, 9.10562452483594], [45.938445422338475, 8.868618999546888], [45.602769022136684, 8.659559117826367], [45.250447164861704, 8.47998610357899], [44.88407608102694, 8.33122333864035], [44.50634807847096, 8.214366900708136], [44.120033333775325, 8.130277667949276], [43.727961033185046, 8.07957507807412], [43.333, 8.062632615000902], [42.93803896681495, 8.07957507807412], [42.54596666622468, 8.130277667949276], [42.15965192152905, 8.214366900708136], [41.781923918973064, 8.33122333864035], [41.41555283513829, 8.47998610357899], [41.06323097786332, 8.659559117826367], [40.72755457766153, 8.868618999546888], [40.411006340641514, 9.10562452483594], [40.115938845381294, 9.368827558048064], [39.84455883723245, 9.656285345646838], [39.59891244635895, 9.965874066782577], [39.380871332581144, 10.29530353567211], [39.192119742700505, 10.642132956032054], [39.034142455979385, 11.003787635450816], [38.908213591950734, 11.377576576639694], [38.81538626232333, 11.760710871820503], [38.756483065447746, 12.150322834874231], [38.73208744703219, 12.543485812093644], [38.74253598335387, 12.937234615344844], [38.78791168130337, 13.328586520197451], [38.86803843086851, 13.71456276541088], [38.98247678724419, 14.092210478638327], [39.13052129837803, 14.458624936257133], [39.311199625894545, 14.810972043180437], [39.5232737293759, 15.146510892107733], [39.76524339246979, 15.462616232127022], [40.035352361245, 15.75680064550291], [40.33159733837116, 16.02673620084786], [40.651740029873174, 16.27027532291919], [40.99332237454814, 16.48547059638244], [41.35368500131591, 16.67059320536391], [41.729988860106424, 16.824149704578687], [42.11923986221914, 16.944896822927017], [42.51831625258095, 17.031854017740322], [42.923998326026464, 17.084313527591732], [43.333, 17.101847713162492], [43.74200167397354, 17.084313527591732], [44.147683747419045, 17.031854017740326], [44.546760137780865, 16.944896822927017], [44.936011139893566, 16.824149704578687], [45.31231499868409, 16.670593205363915], [45.672677625451854, 16.48547059638244], [46.014259970126815, 16.27027532291919], [46.334402661628836, 16.026736200847864], [46.63064763875499, 15.756800645502913], [46.900756607530205, 15.462616232127026], [47.142726270624095, 15.146510892107736], [47.35480037410545, 14.81097204318044], [47.535478701621976, 14.458624936257136], [47.6835232127558, 14.092210478638327], [47.79796156913149, 13.71456276541088], [47.87808831869663, 13.328586520197451], [47.923464016646136, 12.937234615344849], [47.93391255296781, 12.543485812093646]]]}}, {"type": "Feature", "properties": {"chokepoint_id": "bab_el_mandeb", "chokepoint_name": "Bab-el-Mandeb Strait", "radius_km": 1000.0}, "geometry": {"type": "Polygon", "coordinates": [[[52.53202808228251, 12.425222670225784], [52.470003653586986, 11.642223417040864], [52.34035718241172, 10.867301732899794], [52.14452569832427, 10.106132113954478], [51.88434164516632, 9.364258789366385], [51.562018083804176, 8.647064849000078], [51.180135621046645, 7.959741824509085], [50.74163038538885, 7.3072595196461405], [50.2497822436899, 6.694335995678432], [49.70820238633374, 6.125407737863479], [49.12081940271507, 5.6046001519940525], [48.49186302337349, 5.135698658755278], [47.8258448170235, 4.72212076067557], [47.127535294639166, 4.3668895446328815], [46.401937079973266, 4.072609145685445], [45.654254044328916, 3.8414427300905665], [44.88985655778887, 3.6750935531512794], [44.1142432617778, 3.5747896096231155], [43.333, 3.541272322057888], [42.5517567382222, 3.5747896096231155], [41.77614344221113, 3.6750935531512794], [41.01174595567108, 3.8414427300905682], [40.26406292002673, 4.072609145685443], [39.53846470536083, 4.3668895446328815], [38.8401551829765, 4.72212076067557], [38.174136976626514, 5.135698658755278], [37.54518059728493, 5.6046001519940525], [36.957797613666266, 6.125407737863479], [36.4162177563101, 6.694335995678427], [35.92436961461115, 7.3072595196461405], [35.48586437895336, 7.959741824509085], [35.10398191619583, 8.647064849000078], [34.781658354833674, 9.364258789366383], [34.52147430167573, 10.106132113954473], [34.32564281758828, 10.867301732899788], [34.19599634641302, 11.642223417040864], [34.133971917717496, 12.425222670225782], [34.14059412853625, 13.210526352458114], [34.216455648470216, 13.992295421398989], [34.36169528156784, 14.764659200472453], [34.57597395000414, 15.521751587477791], [34.858449327806404, 16.257749583087318], [35.20775023201783, 16.9669144398533], [35.62195225209991, 17.643635607026535], [36.098556437979624, 18.282477474823835], [36.634473138924925, 18.878228707513404], [37.22601325129326, 19.425953705984586], [37.86888915454983, 19.921045470575912], [38.55822745793975, 20.359278862284015], [39.288595322167154, 20.736863008013334], [40.05404155671334, 21.050491389078623], [40.8481529430107, 21.297388017822552], [41.66412534223101, 21.475348067899336], [42.494848185067205, 21.582771395588342], [43.333, 21.61868757829919], [44.171151814932784, 21.582771395588345], [45.001874657768994, 21.47534806789934], [45.8178470569893, 21.297388017822556], [46.611958443286646, 21.050491389078623], [47.37740467783284, 20.73686300801334], [48.10777254206025, 20.359278862284018], [48.79711084545017, 19.921045470575912], [49.439986748706744, 19.425953705984593], [50.03152686107507, 18.87822870751341], [50.56744356202037, 18.28247747482384], [51.04404774790009, 17.64363560702655], [51.45824976798217, 16.966914439853305], [51.80755067219359, 16.25774958308732], [52.090026049995856, 15.521751587477798], [52.304304718432164, 14.764659200472453], [52.44954435152978, 13.992295421398993], [52.525405871463754, 13.210526352458121], [52.53202808228251, 12.425222670225784]]]}}, {"type": "Feature", "properties": {"chokepoint_id": "suez_canal", "chokepoint_name": "Suez Canal (northern end / Port Said)", "radius_km": 250.0}, "geometry": {"type": "Polygon", "coordinates": [[[34.953214908945895, 30.6787840360658], [34.93804610596521, 30.482545051669536], [34.90330136499138, 30.288182160995728], [34.84935598735924, 30.09715715530738], [34.77672152425968, 29.91089869023646], [34.68603914686072, 29.730792299502127], [34.57807248035667, 29.55817090957007], [34.45369999826237, 29.394305890352534], [34.31390706013717, 29.240398671564424], [34.15977766325994, 29.097572949845762], [33.992485967011426, 28.966867508107498], [33.813287638147756, 28.849229665607393], [33.62351105593384, 28.745509374862856], [33.424548408309676, 28.656453979506793], [33.217846703856075, 28.582703645454757], [33.004898719217096, 28.52478747616117], [32.78723389768722, 28.483120321204527], [32.56640921172017, 28.45800028589277], [32.344, 28.449606947977248], [32.12159078827983, 28.45800028589277], [31.900766102312776, 28.483120321204527], [31.68310128078291, 28.52478747616117], [31.47015329614393, 28.582703645454757], [31.263451591690327, 28.656453979506793], [31.064488944066166, 28.745509374862856], [30.874712361852247, 28.849229665607393], [30.695514032988577, 28.966867508107498], [30.528222336740065, 29.097572949845762], [30.37409293986283, 29.240398671564417], [30.234300001737633, 29.394305890352534], [30.109927519643332, 29.55817090957007], [30.001960853139277, 29.730792299502127], [29.911278475740332, 29.91089869023646], [29.83864401264076, 30.09715715530738], [29.784698635008628, 30.28818216099573], [29.749953894034785, 30.482545051669536], [29.734785091054107, 30.6787840360658], [29.739425293082856, 30.875414632856995], [29.76396011532467, 31.070940526172155], [29.80832340274523, 31.263864772972195], [29.872293950767276, 31.45270129441167], [29.955493409499052, 31.63598657274124], [30.05738551569095, 31.812291464202797], [30.177276790899498, 31.98023302712002], [30.31431883235968, 32.13848625346715], [30.467512304301003, 32.28579558215165], [30.635712711685603, 32.42098606367696], [30.81763800578776, 32.54297403938124], [31.01187803231069, 32.65077719468326], [31.216905788951276, 32.74352384525319], [31.431090412033416, 32.82046131820446], [31.652711762986403, 32.880963297561124], [31.879976437291184, 32.924536014502806], [32.111034973455446, 32.95082317811476], [32.344, 32.95960956125181], [32.57696502654455, 32.95082317811476], [32.80802356270882, 32.92453601450281], [33.035288237013596, 32.880963297561124], [33.25690958796658, 32.82046131820445], [33.47109421104872, 32.7435238452532], [33.67612196768931, 32.65077719468325], [33.87036199421224, 32.54297403938125], [34.0522872883144, 32.42098606367697], [34.220487695699, 32.285795582151664], [34.373681167640314, 32.13848625346716], [34.5107232091005, 31.98023302712002], [34.630614484309056, 31.812291464202797], [34.73250659050094, 31.635986572741245], [34.81570604923272, 31.452701294411668], [34.87967659725477, 31.263864772972195], [34.92403988467533, 31.07094052617214], [34.94857470691714, 30.875414632856995], [34.953214908945895, 30.6787840360658]]]}}, {"type": "Feature", "properties": {"chokepoint_id": "suez_canal", "chokepoint_name": "Suez Canal (northern end / Port Said)", "radius_km": 500.0}, "geometry": {"type": "Polygon", "coordinates": [[[37.55961552915314, 30.600218303907013], [37.518970303809304, 30.208737591920855], [37.43978339476216, 29.821739338036483], [37.323074457439596, 29.44208366149975], [37.17010000428494, 29.072546948165595], [36.98233552518966, 28.71580498931516], [36.76145803729102, 28.374417309206347], [36.509329168496755, 28.050812636743913], [36.22797881826734, 27.747275480130636], [35.91958939184572, 27.465933770416473], [35.58648056973485, 27.208747549103446], [35.231094551665585, 26.977498685133323], [34.85598170203907, 26.77378161660772], [34.463786520098324, 26.59899512158645], [34.05723386098442, 26.454335129619963], [33.63911534144939, 26.34078859084996], [33.21227587448329, 26.259128422327553], [32.779600288750196, 26.209909551623163], [32.344, 26.193466075991108], [31.908399711249803, 26.209909551623163], [31.475724125516713, 26.259128422327553], [31.048884658550612, 26.34078859084996], [30.630766139015588, 26.454335129619963], [30.224213479901678, 26.59899512158645], [29.83201829796094, 26.77378161660772], [29.456905448334417, 26.977498685133323], [29.10151943026515, 27.208747549103446], [28.768410608154284, 27.465933770416473], [28.46002118173267, 27.747275480130636], [28.178670831503258, 28.050812636743917], [27.926541962708978, 28.374417309206347], [27.70566447481034, 28.71580498931516], [27.51789999571507, 29.072546948165595], [27.364925542560414, 29.44208366149975], [27.24821660523785, 29.821739338036483], [27.169029696190698, 30.208737591920855], [27.12838447084686, 30.600218303907013], [27.127045597107596, 30.993255714309367], [27.16550463830653, 31.384877782641357], [27.2439623094277, 31.772086832830958], [27.362311567117327, 32.15188147780485], [27.520122094545634, 32.52127978230055], [27.716626835294342, 32.87734357777905], [27.950711307583333, 33.217203788775514], [28.22090648173992, 33.538086567328456], [28.525386019993043, 33.837339963642684], [28.861968649229535, 34.11246079027554], [29.228126356899573, 34.36112126824932], [29.620998963534923, 34.581194981709544], [30.03741543242716, 34.770781618606314], [30.47392203328322, 34.92822994385428], [30.926817193275973, 35.052158443373855], [31.392192562493083, 35.14147309593925], [31.865979512471256, 35.195381776663616], [32.344, 35.21340487081719], [32.82202048752874, 35.195381776663616], [33.295807437506916, 35.14147309593925], [33.76118280672403, 35.05215844337385], [34.21407796671678, 34.92822994385428], [34.650584567572835, 34.770781618606314], [35.06700103646508, 34.581194981709544], [35.45987364310042, 34.36112126824933], [35.82603135077047, 34.11246079027555], [36.16261398000697, 33.837339963642684], [36.46709351826008, 33.538086567328456], [36.737288692416655, 33.217203788775514], [36.971373164705646, 32.87734357777905], [37.16787790545437, 32.52127978230056], [37.32568843288268, 32.15188147780485], [37.4440376905723, 31.772086832830958], [37.52249536169347, 31.384877782641354], [37.560954402892406, 30.993255714309367], [37.55961552915314, 30.600218303907013]]]}}, {"type": "Feature", "properties": {"chokepoint_id": "suez_canal", "chokepoint_name": "Suez Canal (northern end / Port Said)", "radius_km": 1000.0}, "geometry": {"type": "Polygon", "coordinates": [[[42.75292826215912, 30.287179479587515], [42.6319001303449, 29.510537327379623], [42.43725540408449, 28.745535495060317], [42.17188883525483, 27.997548400789483], [41.83898593460292, 27.271737450217042], [41.44198756231604, 26.57303226483631], [40.98456084195558, 25.906113303895886], [40.47057533362844, 25.275395459819656], [39.90408336721721, 24.68501233550222], [39.28930346488356, 24.13880103378382], [38.630605858177844, 23.640287400476744], [37.93249921606101, 23.192671759226954], [37.199617835413235, 22.798815256807593], [36.436708696270074, 22.461226999398566], [35.648617942267556, 22.182052202894287], [34.84027650538845, 21.96306160284538], [34.01668474624214, 21.80564237254427], [33.18289612023774, 21.71079078206157], [32.344, 21.67910679860206], [31.505103879762256, 21.71079078206157], [30.67131525375786, 21.80564237254427], [29.84772349461155, 21.963061602845386], [29.03938205773245, 22.182052202894287], [28.25129130372993, 22.461226999398566], [27.488382164586767, 22.798815256807593], [26.755500783938988, 23.192671759226954], [26.057394141822158, 23.640287400476744], [25.39869653511644, 24.13880103378382], [24.7839166327828, 24.68501233550222], [24.217424666371567, 25.275395459819652], [23.703439158044425, 25.906113303895886], [23.24601243768397, 26.57303226483631], [22.84901406539709, 27.271737450217042], [22.516111164745173, 27.997548400789483], [22.25074459591551, 28.74553549506031], [22.0560998696551, 29.510537327379623], [21.935071737840886, 30.287179479587508], [21.890221513863434, 31.06989523530338], [21.923726397059735, 31.85294890779559], [22.037320423112085, 32.630462556858305], [22.232227158167163, 33.3964469443171], [22.509084914214874, 34.144837605937205], [22.86786609077644, 34.869536881495826], [23.307793226996917, 35.56446262531035], [23.82725543390039, 36.223604098358884], [24.423729987361824, 36.841085206501425], [25.09371487598788, 37.41123479231244], [25.832678854360978, 37.92866311969408], [26.63503586624664, 38.38834303839553], [27.494150391316545, 38.78569362898934], [28.4023791893618, 39.11666347793194], [29.3511530088759, 39.37781020280515], [30.331099158353137, 39.56637252997846], [31.332202622869595, 39.6803311998766], [32.344, 39.718455289089064], [33.35579737713041, 39.680331199876605], [34.35690084164686, 39.566372529978466], [35.3368469911241, 39.37781020280515], [36.28562081063819, 39.11666347793195], [37.19384960868344, 38.78569362898934], [38.052964133753356, 38.38834303839553], [38.855321145639024, 37.92866311969408], [39.59428512401212, 37.41123479231245], [40.26427001263818, 36.84108520650144], [40.860744566099605, 36.223604098358884], [41.380206773003074, 35.564462625310355], [41.82013390922355, 34.86953688149583], [42.17891508578512, 34.14483760593721], [42.45577284183283, 33.396446944317105], [42.65067957688791, 32.6304625568583], [42.76427360294026, 31.852948907795582], [42.797778486136565, 31.069895235303388], [42.75292826215912, 30.287179479587515]]]}}]}